NORAD_CAT_ID,OBJECT_NAME,OBJECT_TYPE,EPOCH,MEAN_MOTION,ECCENTRICITY,INCLINATION,RA_OF_ASC_NODE,ARG_OF_PERICENTER,MEAN_ANOMALY,BSTAR,MEAN_MOTION_DOT,MEAN_MOTION_DDOT,TLE_LINE0,TLE_LINE1,TLE_LINE2,SEMIMAJOR_AXIS,PERIOD,APOGEE,PERIGEE,DECAYED
52349.0,STARLINK-3819,PAYLOAD,2022-07-03 00:00:00,15.37124794,0.0001629999999999,53.2175,122.0553,46.0555,212.7095,-0.021,-0.00715588,0.0,0 STARLINK-3819,1 52349U 22045U   22184.00001157 -.00715588  00000-0 -21000-1 0  9997,2 52349  53.2175 122.0553 0001630  46.0555 212.7095 15.37124794 12609,6832.754,93.681,455.732,453.505,0.0
52349.0,STARLINK-3819,PAYLOAD,2022-07-03 14:00:01,15.36233842,0.0001549,53.2176,119.3192,48.6093,198.9815,-0.021698,-0.00718082,0.0,0 STARLINK-3819,1 52349U 22045U   22184.58334491 -.00718082  00000-0 -21698-1 0  9995,2 52349  53.2176 119.3192 0001549  48.6093 198.9815 15.36233842  1306,6835.395,93.736,458.319,456.201,0.0
52349.0,STARLINK-3819,PAYLOAD,2022-07-03 22:00:00,15.35723625,0.0001751,53.2177,117.7582,37.9272,253.8641,-0.022037,-0.00717458,0.0,0 STARLINK-3819,1 52349U 22045U   22184.91667824 -.00717458  00000-0 -22037-1 0  9995,2 52349  53.2177 117.7582 0001751  37.9272 253.8641 15.35723625  1307,6836.909000000002,93.767,459.971,457.577,0.0
52349.0,STARLINK-3819,PAYLOAD,2022-07-04 06:00:00,15.35212175,0.0001667,53.2175,116.1996,39.1175,296.2612,-0.022314,-0.0071481,0.0,0 STARLINK-3819,1 52349U 22045U   22185.25001157 -.00714810  00000-0 -22314-1 0  9991,2 52349  53.2175 116.1996 0001667  39.1175 296.2612 15.35212175 12796,6838.427,93.798,461.432,459.152,0.0
52349.0,STARLINK-3819,PAYLOAD,2022-07-04 14:00:01,15.34703257,0.0001554,53.2175,114.6388,40.0268,338.3281,-0.022773,-0.00717461,0.0,0 STARLINK-3819,1 52349U 22045U   22185.58334491 -.00717461  00000-0 -22773-1 0  9991,2 52349  53.2175 114.6388 0001554  40.0268 338.3281 15.34703257  1303,6839.939,93.829,462.867,460.741,0.0
52349.0,STARLINK-3819,PAYLOAD,2022-07-04 22:00:00,15.34194609,0.0001703,53.2177,113.0817,37.9839,22.7324,-0.023212,-0.00719355,0.0,0 STARLINK-3819,1 52349U 22045U   22185.91667824 -.00719355  00000-0 -23212-1 0  9990,2 52349  53.2177 113.0817 0001703  37.9839  22.7324 15.34194609  1307,6841.451,93.86,464.481,462.151,0.0
52349.0,STARLINK-3819,PAYLOAD,2022-07-05 08:00:01,15.33556919,0.0001686999999999,53.2172,111.1371,45.3841,157.4228,-0.023657,-0.00718464,0.0,0 STARLINK-3819,1 52349U 22045U   22186.33334491 -.00718464  00000-0 -23657-1 0  9991,2 52349  53.2172 111.1371 0001687  45.3841 157.4228 15.33556919 12950,6843.347,93.899,466.367,464.0580000000001,0.0
52349.0,STARLINK-3819,PAYLOAD,2022-07-05 14:00:01,15.33171966,0.0001676999999999,53.2174,109.9694,42.683,100.9208,-0.023809,-0.00714603,0.0,0 STARLINK-3819,1 52349U 22045U   22186.58334491 -.00714603  00000-0 -23809-1 0  9998,2 52349  53.2174 109.9694 0001677  42.6830 100.9208 15.33171966  1305,6844.493,93.923,467.505,465.21,0.0
52349.0,STARLINK-3819,PAYLOAD,2022-07-05 22:00:00,15.32662723,0.0001893,53.2177,108.4159,37.8245,146.3025,-0.02424,-0.00715829,0.0,0 STARLINK-3819,1 52349U 22045U   22186.91667824 -.00715829  00000-0 -24240-1 0  9995,2 52349  53.2177 108.4159 0001893  37.8245 146.3025 15.32662723  1300,6846.009,93.954,469.17,466.578,0.0
52349.0,STARLINK-3819,PAYLOAD,2022-07-06 14:00:01,15.31641929,0.0001658,53.2175,105.3106,42.4176,220.9197,-0.024968,-0.00714082,0.0,0 STARLINK-3819,1 52349U 22045U   22187.58334491 -.00714082  00000-0 -24968-1 0  9997,2 52349  53.2175 105.3106 0001658  42.4176 220.9197 15.31641929  1303,6849.05,94.017,472.051,469.78,0.0
52349.0,STARLINK-3819,PAYLOAD,2022-07-06 16:00:00,15.31513597,0.000161,53.2172,104.9227,39.1799,323.8869,-0.025049,-0.00713553,0.0,0 STARLINK-3819,1 52349U 22045U   22187.66667824 -.00713553  00000-0 -25049-1 0  9998,2 52349  53.2172 104.9227 0001610  39.1799 323.8869 15.31513597 13166,6849.433000000001,94.025,472.4,470.195,0.0
52349.0,STARLINK-3819,PAYLOAD,2022-07-06 19:07:46,15.3265091,2.82e-05,53.215,104.3362,54.1754,305.9274,-0.0059076,-0.00184642,0.0,0 STARLINK-3819,1 52349U 22045U   22187.79707161 -.00184642  00000-0 -59076-2 0  9990,2 52349  53.2150 104.3362 0000282  54.1754 305.9274 15.32650910 13183,6846.044,93.955,468.102,467.716,0.0
52349.0,STARLINK-3819,PAYLOAD,2022-07-07 02:57:56,15.32061591,0.0002268,53.2146,102.8191,34.9812,325.1339,-0.0068166,-0.00208474,0.0,0 STARLINK-3819,1 52349U 22045U   22188.12356675 -.00208474  00000-0 -68166-2 0  9998,2 52349  53.2146 102.8191 0002268  34.9812 325.1339 15.32061591 13231,6847.799,93.991,471.217,468.111,0.0
52349.0,STARLINK-3819,PAYLOAD,2022-07-07 14:00:01,15.30111486,0.0001589,53.2173,100.6628,39.5294,338.0267,-0.026176,-0.00713666,0.0,0 STARLINK-3819,1 52349U 22045U   22188.58334491 -.00713666  00000-0 -26176-1 0  9998,2 52349  53.2173 100.6628 0001589  39.5294 338.0267 15.30111486 13300,6853.616,94.111,476.57,474.392,0.0
52349.0,STARLINK-3819,PAYLOAD,2022-07-07 22:00:00,15.29604029,0.0001712,53.2175,99.1169,38.6997,15.7017,-0.026745,-0.00717474,0.0,0 STARLINK-3819,1 52349U 22045U   22188.91667824 -.00717474  00000-0 -26745-1 0  9997,2 52349  53.2175  99.1169 0001712  38.6997  15.7017 15.29604029  1309,6855.132,94.142,478.171,475.824,0.0
52349.0,STARLINK-3819,PAYLOAD,2022-07-08 14:00:01,15.28582192,0.0001723,53.2173,96.0258,40.3821,85.8769,-0.027482,-0.00722802,0.0,0 STARLINK-3819,1 52349U 22045U   22189.58334491 -.00722802  00000-0 -27482-1 0  9992,2 52349  53.2173  96.0258 0001723  40.3821  85.8769 15.28582192  1307,6858.187,94.205,481.233,478.87,0.0
52349.0,STARLINK-3819,PAYLOAD,2022-07-08 22:00:01,15.28072066,0.0001842,53.2174,94.4835,40.4403,120.8906,-0.027897,-0.00722342,0.0,0 STARLINK-3819,1 52349U 22045U   22189.91668981 -.00722342  00000-0 -27897-1 0  9992,2 52349  53.2174  94.4835 0001842  40.4403 120.8906 15.28072066  1307,6859.7130000000025,94.236,482.842,480.315,0.0
52349.0,STARLINK-3819,PAYLOAD,2022-07-09 14:00:01,15.27052198,0.0001635,53.2172,91.3994,47.1514,182.2958,-0.028779,-0.00722252,0.0,0 STARLINK-3819,1 52349U 22045U   22190.58334491 -.00722252  00000-0 -28779-1 0  9993,2 52349  53.2172  91.3994 0001635  47.1514 182.2958 15.27052198  1306,6862.767,94.299,485.754,483.51,0.0
52349.0,STARLINK-3819,PAYLOAD,2022-07-09 16:00:00,15.26924051,0.0001535,53.2173,91.0143,46.4172,281.3804,-0.028866,-0.00721639,0.0,0 STARLINK-3819,1 52349U 22045U   22190.66667824 -.00721639  00000-0 -28866-1 0  9996,2 52349  53.2173  91.0143 0001535  46.4172 281.3804 15.26924051 13614,6863.151,94.307,486.069,483.962,0.0
52349.0,STARLINK-3819,PAYLOAD,2022-07-09 20:00:01,15.2667046,0.000188,53.2175,90.2453,39.5299,124.8518,-0.029172,-0.00723582,0.0,0 STARLINK-3819,1 52349U 22045U   22190.83334491 -.00723582  00000-0 -29172-1 0  9996,2 52349  53.2175  90.2453 0001880  39.5299 124.8518 15.26670460  1305,6863.911,94.323,487.066,484.486,0.0
52349.0,STARLINK-3819,PAYLOAD,2022-07-10 14:00:01,15.25521061,0.0001655,53.2172,86.7841,39.6882,287.4325,-0.030065,-0.00720368,0.0,0 STARLINK-3819,1 52349U 22045U   22191.58334491 -.00720368  00000-0 -30065-1 0  9991,2 52349  53.2172  86.7841 0001655  39.6882 287.4325 15.25521061  1305,6867.358,94.394,490.36,488.087,0.0
52349.0,STARLINK-3819,PAYLOAD,2022-07-10 22:00:00,15.25013419,0.0001801,53.2173,85.2493,36.2115,322.2394,-0.030678,-0.0072366,0.0,0 STARLINK-3819,1 52349U 22045U   22191.91667824 -.00723660  00000-0 -30678-1 0  9995,2 52349  53.2173  85.2493 0001801  36.2115 322.2394 15.25013419 13814,6868.882,94.425,491.984,489.51,0.0
52349.0,STARLINK-3819,PAYLOAD,2022-07-11 14:00:01,15.23991767,0.0001631999999999,53.2172,82.1793,41.1896,18.0891,-0.031545,-0.00721725,0.0,0 STARLINK-3819,1 52349U 22045U   22192.58334491 -.00721725  00000-0 -31545-1 0  9994,2 52349  53.2172  82.1793 0001632  41.1896  18.0891 15.23991767  1307,6871.9519999999975,94.489,494.93800000000016,492.695,0.0
52349.0,STARLINK-3819,PAYLOAD,2022-07-11 22:00:00,15.23483452,0.0001938,53.2173,80.6485,34.9915,53.7791,-0.032131,-0.00723918,0.0,0 STARLINK-3819,1 52349U 22045U   22192.91667824 -.00723918  00000-0 -32131-1 0  9998,2 52349  53.2173  80.6485 0001938  34.9915  53.7791 15.23483452 13967,6873.48,94.52,496.677,494.013,0.0
52349.0,STARLINK-3819,PAYLOAD,2022-07-12 14:00:01,15.22463831,0.000175,53.2173,77.5856,42.8085,103.1122,-0.033184,-0.00725164,0.0,0 STARLINK-3819,1 52349U 22045U   22193.58334491 -.00725164  00000-0 -33184-1 0  9997,2 52349  53.2173  77.5856 0001750  42.8085 103.1122 15.22463831  1303,6876.549,94.584,499.617,497.21,0.0
52349.0,STARLINK-3819,PAYLOAD,2022-07-12 22:00:00,15.21951988,0.0002,53.2173,76.0582,37.5536,136.0221,-0.033505,-0.00721447,0.0,0 STARLINK-3819,1 52349U 22045U   22193.91667824 -.00721447  00000-0 -33505-1 0  9990,2 52349  53.2173  76.0582 0002000  37.5536 136.0221 15.21951988 14116,6878.09,94.615,501.331,498.58,0.0
52349.0,STARLINK-3819,PAYLOAD,2022-07-13 14:00:01,15.20933659,0.0001817,53.2172,73.0024,41.5156,185.533,-0.034693,-0.00724651,0.0,0 STARLINK-3819,1 52349U 22045U   22194.58334491 -.00724651  00000-0 -34693-1 0  9994,2 52349  53.2172  73.0024 0001817  41.5156 185.5330 15.20933659  1302,6881.16,94.679,504.275,501.775,0.0
52349.0,STARLINK-3819,PAYLOAD,2022-07-13 22:00:00,15.20421858,0.0001925,53.2173,71.4788,38.8248,214.0402,-0.035022,-0.00720884,0.0,0 STARLINK-3819,1 52349U 22045U   22194.91667824 -.00720884  00000-0 -35022-1 0  9991,2 52349  53.2173  71.4788 0001925  38.8248 214.0402 15.20421858 14263,6882.704000000002,94.711,505.894,503.244,0.0
52349.0,STARLINK-3819,PAYLOAD,2022-07-14 14:00:01,15.19401905,0.0001753,53.2174,68.43,40.251,262.4108,-0.036108,-0.00721331,0.0,0 STARLINK-3819,1 52349U 22045U   22195.58334491 -.00721331  00000-0 -36108-1 0  9990,2 52349  53.2174  68.4300 0001753  40.2510 262.4108 15.19401905  1308,6885.784000000002,94.774,508.856,506.442,0.0
